ONEWEB-0504             
1 54122U 22138K   25206.96442582 -.00000043  00000+0 -14057-3 0  9993
2 54122  87.9228   9.8035 0002135  95.4027 264.7350 13.19725156134673
ONEWEB-0505             
1 54123U 22138L   25206.96123934  .00000021  00000+0  20138-4 0  9993
2 54123  87.9226   9.7935 0002426  91.3655 268.7756 13.19723854134650
ONEWEB-0506             
1 54124U 22138M   25207.01181271 -.00000022  00000+0 -86552-4 0  9994
2 54124  87.9226   9.7803 0002038  92.4796 267.6570 13.19725017134657
ONEWEB-0507             
1 54125U 22138N   25206.95651163 -.00000052  00000+0 -16165-3 0  9994
2 54125  87.9225   9.8452 0002039  89.7720 270.3646 13.19727824134692
ONEWEB-0508             
1 54126U 22138P   25206.49846886  .00000060  00000+0  11699-3 0  9996
2 54126  87.9223   9.9189 0002179  86.6057 273.5325 13.19725008133749
ONEWEB-0509             
1 54127U 22138Q   25207.15554162  .00000104  00000+0  22824-3 0  9995
2 54127  87.9226   9.7490 0001957  91.4840 268.6517 13.19726130134671
ONEWEB-0510             
1 54128U 22138R   25206.39245671  .00000092  00000+0  19438-3 0  9996
2 54128  87.9291 339.5420 0001400 108.6166 251.5120 13.20772358136146
ONEWEB-0511             
1 54129U 22138S   25207.15238761 -.00000001  00000+0 -35240-4 0  9996
2 54129  87.9225   9.7556 0001976 101.7671 258.3684 13.19725846134701
